COSMOS 2425 (716)       
1 29670U 06062A   21336.47941848  .00000018  00000+0  00000+0 0  9995
2 29670  64.8029 249.7756 0024526 345.1791 197.5352  2.13110440116257
COSMOS 2433 (720)       
1 32275U 07052A   21336.43905098 -.00000034  00000+0  00000+0 0  9992
2 32275  66.0780  11.2095 0004879 239.9079  77.9261  2.13104315109768
COSMOS 2432 (719)       
1 32276U 07052B   21336.68127546 -.00000035  00000+0  00000+0 0  9995
2 32276  66.0916  11.2999 0009932 314.0781 138.3968  2.13103489109771
COSMOS 2434 (721)       
1 32393U 07065A   21336.51225792  .00000020  00000+0  00000+0 0  9996
2 32393  64.4224 248.1551 0002046  70.4478 192.4153  2.13103104108472
COSMOS 2436 (723)       
1 32395U 07065C   21336.31574243  .00000019  00000+0  00000+0 0  9992
2 32395  64.4317 248.2172 0015721 357.5393 250.5642  2.13102886108404
COSMOS 2456 (730)       
1 36111U 09070A   21336.46699781  .00000071  00000+0  00000+0 0  9999
2 36111  64.3079 127.8178 0001638 350.4377  46.0409  2.13099235 93148
COSMOS 2457 (733)       
1 36112U 09070B   21336.57579537  .00000069  00000+0  00000+0 0  9995
2 36112  64.2907 127.6947 0006884 148.6879  96.9810  2.13101425 93147
COSMOS 2459 (731)       
1 36400U 10007A   21336.57990965 -.00000035  00000+0  00000+0 0  9993
2 36400  65.9716  10.1084 0025518 345.3414 301.1295  2.13111514 91480
COSMOS 2461 (735)       
1 36401U 10007B   21336.31857661 -.00000034  00000+0  00000+0 0  9990
2 36401  65.9669  10.0805 0018452   1.1124  81.9383  2.13103715 91498
COSMOS 2460 (732)       
1 36402U 10007C   21336.39691189 -.00000034  00000+0  00000+0 0  9990
2 36402  65.9529  10.0329 0002215 232.4781 217.1918  2.13106540 91499
COSMOS 2464 (736)       
1 37139U 10041C   21336.71848275  .00000023  00000+0  00000+0 0  9999
2 37139  64.0213 247.3216 0029010   8.8947 271.8575  2.13100840 87553
COSMOS 2471 (701K)      
1 37372U 11009A   21336.21142580 -.00000034  00000+0  00000+0 0  9997
2 37372  65.9482   9.9661 0017519 230.4515 199.3141  2.13063096 83764
COSMOS 2476 (744)       
1 37867U 11064A   21336.07063199  .00000079  00000+0  00000+0 0  9997
2 37867  64.5999 129.1107 0019680 230.3163 125.8559  2.13101863 78474
COSMOS 2477 (745)       
1 37868U 11064B   21336.64096906  .00000072  00000+0  00000+0 0  9996
2 37868  64.6082 129.1536 0017025 230.4507  21.5099  2.13101716 78444
COSMOS 2475 (743)       
1 37869U 11064C   21336.64231682  .00000072  00000+0  00000+0 0  9999
2 37869  64.6154 129.1600 0020399 252.3711 318.4915  2.13101928 78456
COSMOS 2485 (747)       
1 39155U 13019A   21336.49058243  .00000075  00000+0  00000+0 0  9997
2 39155  64.7652 129.4818 0020310 226.0489 136.7564  2.13101902 66963
COSMOS 2492 (754)       
1 39620U 14012A   21336.37398813 -.00000034  00000+0  00000+0 0  9991
2 39620  65.8417   9.7406 0013165 313.6903 354.2913  2.13103248 59904
COSMOS 2500 (755)       
1 40001U 14032A   21336.24952806 -.00000034  00000+0  00000+0 0  9992
2 40001  65.7825   9.6201 0008244 210.3725 221.3148  2.13102430 58129
COSMOS 2501 (702K)      
1 40315U 14075A   21336.23919703  .00000018  00000+0  00000+0 0  9996
2 40315  63.7313 248.0819 0017419 211.6493  19.1858  2.13101313 54521
COSMOS 2514 (751)       
1 41330U 16008A   21336.62129506 -.00000035  00000+0  00000+0 0  9999
2 41330  65.5833   9.3495 0012118 217.2052 323.1493  2.13102839 45299
COSMOS 2516 (753)       
1 41554U 16032A   21336.37706285  .00000019  00000+0  00000+0 0  9992
2 41554  63.9574 248.2978 0013665 220.5638  31.3477  2.13106400 42897
COSMOS 2522 (752)       
1 42939U 17055A   21336.49122588  .00000019  00000+0  00000+0 0  9997
2 42939  64.1905 248.6315 0007867 250.9471 308.4523  2.13102121 32653
COSMOS 2527 (756)       
1 43508U 18053A   21336.43389619  .00000075  00000+0  00000+0 0  9995
2 43508  64.9284 129.4426 0006994 211.4717 336.0646  2.13102541 26942
COSMOS 2529 (757)       
1 43687U 18086A   21336.18091725  .00000016  00000+0  00000+0 0  9994
2 43687  64.4054 248.9046 0010269 272.5478   4.3296  2.13102142 23958
COSMOS 2534 (758)       
1 44299U 19030A   21336.34986856  .00000018  00000+0  00000+0 0  9992
2 44299  64.4767 248.7657 0013213 290.6593 250.5441  2.13101936 19600
COSMOS 2544 (759)       
1 44850U 19088A   21336.43875013  .00000075  00000+0  00000+0 0  9993
2 44850  64.9134 129.2989 0009914 253.0111 341.8605  2.13102295 15374
COSMOS 2545 (760)       
1 45358U 20018A   21336.55327273 -.00000037  00000+0  00000+0 0  9994
2 45358  64.9183  10.1199 0011167 245.2697 287.2374  2.13102694 13331
